IRIDIUM 63              
1 25286U 98021B   25147.77036037  .00000372  00000+0  11993-3 0  9992
2 25286  86.3968  90.6968 0002273  81.4940 278.6515 14.36530269420912
IRIDIUM 69              
1 25319U 98026A   25147.63725107  .00000425  00000+0  12612-3 0  9990
2 25319  86.3958 104.1067 0004686  89.1331 271.0406 14.40947062420103
IRIDIUM 71              
1 25320U 98026B   25147.57737120  .00000381  00000+0  11204-3 0  9990
2 25320  86.3958  98.8253 0003703 118.8605 241.2967 14.41141409420624
IRIDIUM 73              
1 25344U 98032C   25147.65895493  .00000524  00000+0  12548-3 0  9991
2 25344  86.4425  55.5344 0002942  80.4666 279.6872 14.51692906427582
IRIDIUM 82              
1 25467U 98051A   25147.90764156  .00026582  00000+0  77860-3 0  9997
2 25467  86.3659 119.7033 0087393  16.1911 344.2097 15.31275876420859
